INTELSAT 902 (IS-902)   
1 26900U 01039A   26176.15852061 -.00000279  00000+0  00000+0 0  9997
2 26900   6.1364  71.6864 0004220  22.5602 186.0184  1.00272034 90776
INTELSAT 904 (IS-904)   
1 27380U 02007A   26176.19917273 -.00000222  00000+0  00000+0 0  9995
2 27380   6.9401  69.0905 0006533   9.6551 234.8017  1.00273402 51846
DIRECTV 5 (TEMPO 1)     
1 27426U 02023A   26176.14672823 -.00000052  00000+0  00000+0 0  9999
2 27426   4.8983  75.2153 0003506  22.9203 117.8738  1.00272949 88207
INTELSAT 905 (IS-905)   
1 27438U 02027A   26174.78686591  .00000095  00000+0  00000+0 0  9997
2 27438   6.7705  69.7228 0004117  25.1578 323.1299  1.00273149 51424
GALAXY 3C (G-3C)        
1 27445U 02030A   26176.03978844 -.00000146  00000+0  00000+0 0  9992
2 27445   3.7528  77.8806 0001934  27.0363  87.7469  1.00272136 46578
INTELSAT 906 (IS-906)   
1 27513U 02041A   26176.18122740  .00000017  00000+0  00000+0 0  9998
2 27513   5.8222  72.8229 0004258   5.8574 324.0266  1.00271821 87108
GALAXY 13 (HORIZONS-1)  
1 27954U 03044A   26175.18128603  .00000139  00000+0  00000+0 0  9999
2 27954   1.4366  83.7739 0002107   4.2110  99.6267  1.00274159 46642
INTELSAT 10-02          
1 28358U 04022A   26175.02761910 -.00000004  00000+0  00000+0 0  9994
2 28358   0.0222 290.2426 0000317 232.3282 118.5529  1.00269986 80620
DIRECTV 8               
1 28659U 05019A   26176.02891876  .00000010  00000+0  00000+0 0  9997
2 28659   0.0162  61.7276 0003256  38.2934  64.5184  1.00273164 77157
GALAXY 28 (G-28)        
1 28702U 05022A   26176.17953027 -.00000193  00000+0  00000+0 0  9996
2 28702   3.3184  78.8344 0002295  13.2261 218.8075  1.00271115 52058
GALAXY 16 (G-16)        
1 29236U 06023A   26176.14889492 -.00000117  00000+0  00000+0 0  9998
2 29236   0.0420 138.4961 0002861 302.2598 147.1245  1.00272158 73053
DIRECTV 9S              
1 29494U 06043A   26176.14846159 -.00000106  00000+0  00000+0 0  9997
2 29494   2.4416  80.8160 0005354  17.3958 127.3223  1.00271747 51465
GALAXY 17 (G-17)        
1 31307U 07016B   26176.15166825 -.00000199  00000+0  00000+0 0  9992
2 31307   2.9923  79.8060 0004534  15.7957 147.2863  1.00271763 69880
INTELSAT 11 (IS-11)     
1 32253U 07044B   26175.94434948 -.00000019  00000+0  00000+0 0  9995
2 32253   3.5859  78.5824 0002898  84.2607 181.9419  0.99048039 68521
HORIZONS-2              
1 32388U 07063B   26176.15392160 -.00000246  00000+0  00000+0 0  9990
2 32388   2.6228  80.5350 0004131   4.6739 169.6993  1.00271807 67894
DIRECTV 11              
1 32729U 08013A   26174.93690975 -.00000119  00000+0  00000+0 0  9993
2 32729   0.0386 177.2592 0000161 263.8545  69.0887  1.00272226 45667
GALAXY 18 (G-18)        
1 32951U 08024A   26175.23881476  .00000032  00000+0  00000+0 0  9997
2 32951   0.0181 329.9123 0003052 125.8975 139.5670  1.00273802 45922
GALAXY 19 (G-19)        
1 33376U 08045A   26176.14932824 -.00000130  00000+0  00000+0 0  9997
2 33376   0.0450 260.6023 0002873 202.5982 126.8539  1.00272232 64980
FM-5                    
1 35493U 09034A   26176.15140825 -.00000190  00000+0  00000+0 0  9997
2 35493   0.0211 292.4740 0000747  47.4367 261.7228  1.00270358 46720
INTELSAT 14 (IS-14)     
1 36097U 09064A   26176.15956061 -.00000264  00000+0  00000+0 0  9990
2 36097   0.0184   8.2049 0002657  87.7304 189.8020  1.00270395 60687
INTELSAT 15 (IS-15)     
1 36106U 09067A   26175.97140457 -.00000176  00000+0  00000+0 0  9999
2 36106   0.0151  21.3402 0002460  75.4753 251.1575  1.00271794 41305
DIRECTV 12              
1 36131U 09075A   26175.19747616 -.00000096  00000+0  00000+0 0  9991
2 36131   0.0396 154.7925 0000400 358.0182  87.9069  1.00269396 46621
INTELSAT 16 (IS-16)     
1 36397U 10006A   26176.15340160 -.00000235  00000+0  00000+0 0  9996
2 36397   0.0100  20.8909 0002375  88.4314 142.9912  1.00271146 59738
XM-5                    
1 37185U 10053A   26176.14568823 -.00000013  00000+0  00000+0 0  9995
2 37185   0.0624 272.0773 0002672 281.9798  16.4780  1.00270936 57564
INTELSAT 17 (IS-17)     
1 37238U 10065B   26176.01066830  .00000008  00000+0  00000+0 0  9997
2 37238   0.0401 151.5922 0002666 301.2048 250.1876  1.00270688 53327
INTELSAT 28 (IS-28)     
1 37392U 11016A   26176.20828447 -.00000217  00000+0  00000+0 0  9999
2 37392   1.8272  82.5342 0003975  12.0150 222.0494  1.00270619 53369
INTELSAT 18 (IS-18)     
1 37834U 11056A   26176.13289566  .00000062  00000+0  00000+0 0  9996
2 37834   0.0194 290.4334 0002025 166.4754  44.1967  1.00272555 53891
INTELSAT 22 (IS-22)     
1 38098U 12011A   26176.03289008  .00000000  00000+0  00000+0 0  9993
2 38098   0.0332  48.7344 0001822  79.0280 229.3611  1.00270615  7268
INTELSAT 19 (IS-19)     
1 38356U 12030A   26175.19905834 -.00000049  00000+0  00000+0 0  9993
2 38356   0.0166 357.7130 0003299 102.9463  49.3620  1.00273171 50522
INTELSAT 20 (IS-20)     
1 38740U 12043A   26175.87197581  .00000000  00000+0  00000+0 0  9997
2 38740   0.0375  69.0879 0002338 110.0778 116.2550  1.00271269 50821
INTELSAT 21 (IS-21)     
1 38749U 12045A   26176.15704727 -.00000275  00000+0  00000+0 0  9991
2 38749   0.0211  65.5976 0001771  42.2671 163.9705  1.00270968 50608
