OBJECT_NAME,OBJECT_ID,EPOCH,MEAN_MOTION,ECCENTRICITY,INCLINATION,RA_OF_ASC_NODE,ARG_OF_PERICENTER,MEAN_ANOMALY,EPHEMERIS_TYPE,CLASSIFICATION_TYPE,NORAD_CAT_ID,ELEMENT_SET_NO,REV_AT_EPOCH,BSTAR,MEAN_MOTION_DOT,MEAN_MOTION_DDOT
INTELSAT 902 (IS-902),2001-039A,2026-06-25T03:48:16.180704,1.00272034,.000422,6.1364,71.6864,22.5602,186.0184,0,U,26900,999,9077,0,-.279E-5,0
INTELSAT 904 (IS-904),2002-007A,2026-06-25T04:46:48.523872,1.00273402,.0006533,6.9401,69.0905,9.6551,234.8017,0,U,27380,999,5184,0,-.222E-5,0
DIRECTV 5 (TEMPO 1),2002-023A,2026-06-25T03:31:17.319072,1.00272949,.0003506,4.8983,75.2153,22.9203,117.8738,0,U,27426,999,8820,0,-.52E-6,0
INTELSAT 905 (IS-905),2002-027A,2026-06-23T18:53:05.214624,1.00273149,.00041178,6.7705,69.7228,25.1578,323.1299,0,U,27438,999,5142,0,.95E-6,0
GALAXY 3C (G-3C),2002-030A,2026-06-25T00:57:17.721216,1.00272136,.0001934,3.7528,77.8806,27.0363,87.7469,0,U,27445,999,4657,0,-.146E-5,0
INTELSAT 906 (IS-906),2002-041A,2026-06-25T04:20:58.047360,1.00271821,.0004258,5.8222,72.8229,5.8574,324.0266,0,U,27513,999,8710,0,.17E-6,0
GALAXY 13 (HORIZONS-1),2003-044A,2026-06-24T04:21:03.112992,1.00274159,.00021074,1.4366,83.7739,4.2110,99.6267,0,U,27954,999,4664,0,.139E-5,0
INTELSAT 10-02,2004-022A,2026-06-24T00:39:46.290240,1.00269986,.00003177,0.0222,290.2426,232.3282,118.5529,0,U,28358,999,8062,0,-.4E-7,0
DIRECTV 8,2005-019A,2026-06-25T00:41:38.580864,1.00273164,.0003256,0.0162,61.7276,38.2934,64.5184,0,U,28659,999,7715,0,.1E-6,0
GALAXY 28 (G-28),2005-022A,2026-06-25T04:18:31.415328,1.00271115,.0002295,3.3184,78.8344,13.2261,218.8075,0,U,28702,999,5205,0,-.193E-5,0
GALAXY 16 (G-16),2006-023A,2026-06-25T03:34:24.521088,1.00272158,.0002861,0.0420,138.4961,302.2598,147.1245,0,U,29236,999,7305,0,-.117E-5,0
DIRECTV 9S,2006-043A,2026-06-25T03:33:47.081376,1.00271747,.0005354,2.4416,80.8160,17.3958,127.3223,0,U,29494,999,5146,0,-.106E-5,0
GALAXY 17 (G-17),2007-016B,2026-06-25T03:38:24.136800,1.00271763,.0004534,2.9923,79.8060,15.7957,147.2863,0,U,31307,999,6988,0,-.199E-5,0
INTELSAT 11 (IS-11),2007-044B,2026-06-24T22:39:51.795072,0.99048039,.0002898,3.5859,78.5824,84.2607,181.9419,0,U,32253,999,6852,0,-.19E-6,0
HORIZONS-2,2007-063B,2026-06-25T03:41:38.826240,1.00271807,.0004131,2.6228,80.5350,4.6739,169.6993,0,U,32388,999,6789,0,-.246E-5,0
DIRECTV 11,2008-013A,2026-06-23T22:29:09.002400,1.00272226,.00001619,0.0386,177.2592,263.8545,69.0887,0,U,32729,999,4566,0,-.119E-5,0
GALAXY 18 (G-18),2008-024A,2026-06-24T05:43:53.595264,1.00273802,.00030521,0.0181,329.9123,125.8975,139.5670,0,U,32951,999,4592,0,.32E-6,0
GALAXY 19 (G-19),2008-045A,2026-06-25T03:35:01.959936,1.00272232,.0002873,0.0450,260.6023,202.5982,126.8539,0,U,33376,999,6498,0,-.13E-5,0
FM-5,2009-034A,2026-06-25T03:38:01.672800,1.00270358,.0000747,0.0211,292.4740,47.4367,261.7228,0,U,35493,999,4672,0,-.19E-5,0
INTELSAT 14 (IS-14),2009-064A,2026-06-25T03:49:46.036704,1.00270395,.0002657,0.0184,8.2049,87.7304,189.8020,0,U,36097,999,6068,0,-.264E-5,0
INTELSAT 15 (IS-15),2009-067A,2026-06-24T23:18:49.354848,1.00271794,.000246,0.0151,21.3402,75.4753,251.1575,0,U,36106,999,4130,0,-.176E-5,0
DIRECTV 12,2009-075A,2026-06-24T04:44:21.940224,1.00269396,.00004009,0.0396,154.7925,358.0182,87.9069,0,U,36131,999,4662,0,-.96E-6,0
INTELSAT 16 (IS-16),2010-006A,2026-06-25T03:40:53.898240,1.00271146,.0002375,0.0100,20.8909,88.4314,142.9912,0,U,36397,999,5973,0,-.235E-5,0
XM-5,2010-053A,2026-06-25T03:29:47.463072,1.00270936,.0002672,0.0624,272.0773,281.9798,16.4780,0,U,37185,999,5756,0,-.13E-6,0
INTELSAT 17 (IS-17),2010-065B,2026-06-25T00:15:21.741120,1.00270688,.0002666,0.0401,151.5922,301.2048,250.1876,0,U,37238,999,5332,0,.8E-7,0
INTELSAT 28 (IS-28),2011-016A,2026-06-25T04:59:55.778208,1.00270619,.0003975,1.8272,82.5342,12.0150,222.0494,0,U,37392,999,5336,0,-.217E-5,0
INTELSAT 18 (IS-18),2011-056A,2026-06-25T03:11:22.185024,1.00272555,.0002025,0.0194,290.4334,166.4754,44.1967,0,U,37834,999,5389,0,.62E-6,0
INTELSAT 22 (IS-22),2012-011A,2026-06-25T00:47:21.702912,1.00270615,.0001822,0.0332,48.7344,79.0280,229.3611,0,U,38098,999,726,0,0,0
INTELSAT 19 (IS-19),2012-030A,2026-06-24T04:46:38.640576,1.00273171,.00032993,0.0166,357.7130,102.9463,49.3620,0,U,38356,999,5052,0,-.49E-6,0
INTELSAT 20 (IS-20),2012-043A,2026-06-24T20:55:38.709984,1.00271269,.0002338,0.0375,69.0879,110.0778,116.2550,0,U,38740,999,5082,0,0,0
INTELSAT 21 (IS-21),2012-045A,2026-06-25T03:46:08.884128,1.00270968,.0001771,0.0211,65.5976,42.2671,163.9705,0,U,38749,999,5060,0,-.275E-5,0
